stk.v.4.3 

BEGIN Ephemeris 
 
NumberOfEphemerisPoints		146 
ScenarioEpoch	    1 Sep 2020 12:10:40.700930357 
InterpolationMethod		Lagrange 
InterpolationOrder		5 
CentralBody				Earth 
CoordinateSystem			TEME 
CoordinateSystemEpoch	  1 Sep 2020 12:10:40.700930357 
DistanceUnit			Kilometers 
 
EphemerisTimePosVel 
 
       0.00000000   -4337.76352845   -5370.67208473       0.03460635  0.379100253 -0.291668768  7.588039771
 END Ephemeris 
